[{"OBJECT_NAME":"STARLINK-33733","OBJECT_ID":"2025-069C","EPOCH":"2026-03-09T10:32:29.487552","MEAN_MOTION":15.3018979,"ECCENTRICITY":0.00011669,"INCLINATION":53.1579,"RA_OF_ASC_NODE":143.8394,"ARG_OF_PERICENTER":97.1111,"MEAN_ANOMALY":263.0022,"EPHEMERIS_TYPE":0,"CLASSIFICATION_TYPE":"U","NORAD_CAT_ID":63435,"ELEMENT_SET_NO":999,"REV_AT_EPOCH":5336,"BSTAR":0.00051824849,"MEAN_MOTION_DOT":0.00015016,"MEAN_MOTION_DDOT":0},{"OBJECT_NAME":"OBJECT BE","OBJECT_ID":"2025-313BE","EPOCH":"2026-03-09T16:43:59.380320","MEAN_MOTION":15.29801687,"ECCENTRICITY":0.00072083,"INCLINATION":97.3989,"RA_OF_ASC_NODE":145.3568,"ARG_OF_PERICENTER":335.3714,"MEAN_ANOMALY":24.7181,"EPHEMERIS_TYPE":0,"CLASSIFICATION_TYPE":"U","NORAD_CAT_ID":67482,"ELEMENT_SET_NO":999,"REV_AT_EPOCH":797,"BSTAR":0.0026504328,"MEAN_MOTION_DOT":0.00077178,"MEAN_MOTION_DDOT":0}]
