STARLINK-33733          
1 63435U 25069C   26068.43923018  .00015016  00000+0  51825-3 0  9991
2 63435  53.1579 143.8394 0001166  97.1111 263.0022 15.30189790 53364
2025-313BE              
1 67482U 25313BE  26068.69721505  .00077178  00000+0  26504-2 0  9996
2 67482  97.3989 145.3568 0007208 335.3714  24.7181 15.29801687  7972
